NORAD_CAT_ID,OBJECT_NAME,OBJECT_TYPE,EPOCH,MEAN_MOTION,ECCENTRICITY,INCLINATION,RA_OF_ASC_NODE,ARG_OF_PERICENTER,MEAN_ANOMALY,BSTAR,MEAN_MOTION_DOT,MEAN_MOTION_DDOT,TLE_LINE0,TLE_LINE1,TLE_LINE2,SEMIMAJOR_AXIS,PERIOD,APOGEE,PERIGEE,DECAYED
52473.0,STARLINK-3879,PAYLOAD,2023-02-05 10:41:49,15.08841494,0.0001271,53.2148,84.014,93.7019,266.4119,0.00012801,1.75e-05,0.0,0 STARLINK-3879,1 52473U 22049Y   23036.44570818  .00001750  00000-0  12801-3 0  9997,2 52473  53.2148  84.0140 0001271  93.7019 266.4119 15.08841494 41922,6917.876,95.437,540.62,538.862,0.0
52473.0,STARLINK-3879,PAYLOAD,2023-02-05 21:49:31,15.0883902,0.0001228,53.2147,81.9327,91.4424,268.6709,0.00010003,1.304e-05,0.0,0 STARLINK-3879,1 52473U 22049Y   23036.90938982  .00001304  00000-0  10003-3 0  9995,2 52473  53.2147  81.9327 0001228  91.4424 268.6709 15.08839020 41999,6917.883,95.438,540.598,538.899,0.0
52473.0,STARLINK-3879,PAYLOAD,2023-02-06 10:32:36,15.08849511,0.0001194,53.2143,79.5529,93.621,266.4919,0.00033464,5.043e-05,0.0,0 STARLINK-3879,1 52473U 22049Y   23037.43930701  .00005043  00000-0  33464-3 0  9995,2 52473  53.2143  79.5529 0001194  93.6210 266.4919 15.08849511 42234,6917.851,95.437,540.542,538.89,0.0
52473.0,STARLINK-3879,PAYLOAD,2023-02-06 20:04:54,15.08849215,0.0001202,53.2142,77.7688,88.7171,271.3959,0.0004098,6.242e-05,0.0,0 STARLINK-3879,1 52473U 22049Y   23037.83674757  .00006242  00000-0  40980-3 0  9998,2 52473  53.2142  77.7688 0001202  88.7171 271.3959 15.08849215 42139,6917.852,95.437,540.549,538.886,0.0
52473.0,STARLINK-3879,PAYLOAD,2023-02-07 08:47:59,15.08861063,0.0001191,53.2143,75.3892,96.8744,263.2384,0.00060097,9.295e-05,0.0,0 STARLINK-3879,1 52473U 22049Y   23038.36666200  .00009295  00000-0  60097-3 0  9993,2 52473  53.2143  75.3892 0001191  96.8744 263.2384 15.08861063 42210,6917.816,95.436,540.505,538.857,0.0
52473.0,STARLINK-3879,PAYLOAD,2023-02-07 21:31:04,15.08857076,0.0001923,53.2145,73.0102,132.2446,227.8709,0.00030954,4.644e-05,0.0,0 STARLINK-3879,1 52473U 22049Y   23038.89657774  .00004644  00000-0  30954-3 0  9999,2 52473  53.2145  73.0102 0001923 132.2446 227.8709 15.08857076 42450,6917.828,95.436,541.023,538.363,0.0
52473.0,STARLINK-3879,PAYLOAD,2023-02-08 07:03:23,15.08844325,0.0001319,53.2143,71.2257,113.4157,246.6974,8.1811e-05,1.015e-05,0.0,0 STARLINK-3879,1 52473U 22049Y   23039.29402197  .00001015  00000-0  81811-4 0  9999,2 52473  53.2143  71.2257 0001319 113.4157 246.6974 15.08844325 42511,6917.867,95.437,540.645,538.82,0.0
52473.0,STARLINK-3879,PAYLOAD,2023-02-08 11:49:32,15.08850387,0.00011,53.2143,70.3335,109.3443,250.7668,0.00066402,0.00010299,0.0,0 STARLINK-3879,1 52473U 22049Y   23039.49274059  .00010299  00000-0  66402-3 0  9997,2 52473  53.2143  70.3335 0001100 109.3443 250.7668 15.08850387 42384,6917.849,95.437,540.475,538.953,0.0
52473.0,STARLINK-3879,PAYLOAD,2023-02-08 13:24:55,15.08857428,0.000112,53.2146,70.0362,126.3411,233.7684,0.00087694,0.00013703,0.0,0 STARLINK-3879,1 52473U 22049Y   23039.55897940  .00013703  00000-0  87694-3 0  9993,2 52473  53.2146  70.0362 0001120 126.3411 233.7684 15.08857428 42551,6917.827,95.436,540.467,538.917,0.0
52473.0,STARLINK-3879,PAYLOAD,2023-02-09 06:54:10,15.08846659,0.0001384,53.2153,66.7661,115.4178,244.6958,0.00079229,0.00012346,0.0,0 STARLINK-3879,1 52473U 22049Y   23040.28762709  .00012346  00000-0  79229-3 0  9996,2 52473  53.2153  66.7661 0001384 115.4178 244.6958 15.08846659 42665,6917.86,95.437,540.682,538.768,0.0
52473.0,STARLINK-3879,PAYLOAD,2023-02-09 10:04:57,15.08854211,0.0001265,53.2148,66.1701,99.0456,261.0679,0.0012818,0.00020179,0.0,0 STARLINK-3879,1 52473U 22049Y   23040.42010745  .00020179  00000-0  12818-2 0  9991,2 52473  53.2148  66.1701 0001265  99.0456 261.0679 15.08854211 42523,6917.837,95.437,540.577,538.827,0.0
52473.0,STARLINK-3879,PAYLOAD,2023-02-09 18:01:53,15.08836267,0.0001446,53.2166,64.6801,96.0287,264.087,0.0010541,0.00016526,0.0,0 STARLINK-3879,1 52473U 22049Y   23040.75131138  .00016526  00000-0  10541-2 0  9999,2 52473  53.2166  64.6801 0001446  96.0287 264.0870 15.08836267 42737,6917.892,95.438,540.757,538.756,0.0
52473.0,STARLINK-3879,PAYLOAD,2023-02-10 00:23:26,15.08819849,0.0001014,53.2148,63.4943,128.4911,231.6172,0.00025163,3.717e-05,0.0,0 STARLINK-3879,1 52473U 22049Y   23041.01627347  .00003717  00000-0  25163-3 0  9996,2 52473  53.2148  63.4943 0001014 128.4911 231.6172 15.08819849 42772,6917.942,95.439,540.508,539.106,0.0
52473.0,STARLINK-3879,PAYLOAD,2023-02-10 08:20:21,15.08848693,0.0001034,53.2148,62.0079,115.1911,244.9188,0.0026273,0.00041784,0.0,0 STARLINK-3879,1 52473U 22049Y   23041.34747656  .00041784  00000-0  26273-2 0  9996,2 52473  53.2148  62.0079 0001034 115.1911 244.9188 15.08848693 42821,6917.854,95.437,540.434,539.004,0.0
52473.0,STARLINK-3879,PAYLOAD,2023-02-11 05:00:22,15.08861754,0.0001485,53.2154,58.1394,120.3479,239.7661,0.0016124,0.00025482,0.0,0 STARLINK-3879,1 52473U 22049Y   23042.20859666  .00025482  00000-0  16124-2 0  9998,2 52473  53.2154  58.1394 0001485 120.3479 239.7661 15.08861754 42956,6917.814,95.436,540.706,538.652,0.0
52473.0,STARLINK-3879,PAYLOAD,2023-02-11 17:43:27,15.08861561,0.0001173,53.2151,55.7615,69.1111,291.0007,0.00072121,0.00011215,0.0,0 STARLINK-3879,1 52473U 22049Y   23042.73851256  .00011215  00000-0  72121-3 0  9992,2 52473  53.2151  55.7615 0001173  69.1111 291.0007 15.08861561 43030,6917.814,95.436,540.491,538.868,0.0
52473.0,STARLINK-3879,PAYLOAD,2023-02-12 00:05:00,15.08854084,0.000211,53.2157,54.5752,86.5854,273.538,0.00052666,8.107e-05,0.0,0 STARLINK-3879,1 52473U 22049Y   23043.00347566  .00008107  00000-0  52666-3 0  9995,2 52473  53.2157  54.5752 0002110  86.5854 273.5380 15.08854084 43079,6917.837,95.437,541.162,538.243,0.0
52473.0,STARLINK-3879,PAYLOAD,2023-02-12 09:37:19,15.08843313,0.0001626,53.2157,52.7895,84.5835,275.5342,0.00030217,4.525e-05,0.0,0 STARLINK-3879,1 52473U 22049Y   23043.40091597  .00004525  00000-0  30217-3 0  9997,2 52473  53.2157  52.7895 0001626  84.5835 275.5342 15.08843313 43135,6917.87,95.437,540.86,538.61,0.0
52473.0,STARLINK-3879,PAYLOAD,2023-02-12 17:34:14,15.08833122,0.000147,53.2155,51.3048,93.1017,267.0143,8.0393e-05,9.91e-06,0.0,0 STARLINK-3879,1 52473U 22049Y   23043.73211793  .00000991  00000-0  80393-4 0  9999,2 52473  53.2155  51.3048 0001470  93.1017 267.0143 15.08833122 43180,6917.901,95.438,540.783,538.749,0.0
52473.0,STARLINK-3879,PAYLOAD,2023-02-13 01:31:10,15.08837879,0.000138,53.2159,49.8152,87.6197,272.4953,-9.4438e-06,-4.38e-06,0.0,0 STARLINK-3879,1 52473U 22049Y   23044.06331907 -.00000438  00000-0 -94438-5 0  9990,2 52473  53.2159  49.8152 0001380  87.6197 272.4953 15.08837879 43079,6917.887,95.438,540.707,538.797,0.0
52473.0,STARLINK-3879,PAYLOAD,2023-02-14 01:21:58,15.08840512,0.0001431,53.2159,45.3543,85.5498,274.5658,0.00020123,2.916e-05,0.0,0 STARLINK-3879,1 52473U 22049Y   23045.05692140  .00002916  00000-0  20123-3 0  9998,2 52473  53.2159  45.3543 0001431  85.5498 274.5658 15.08840512 43389,6917.879,95.438,540.734,538.754,0.0
52473.0,STARLINK-3879,PAYLOAD,2023-02-14 06:08:07,15.08848015,0.0001265,53.216,44.4621,92.8794,267.2343,0.00034504,5.209e-05,0.0,0 STARLINK-3879,1 52473U 22049Y   23045.25563802  .00005209  00000-0  34504-3 0  9998,2 52473  53.2160  44.4621 0001265  92.8794 267.2343 15.08848015 43255,6917.856,95.437,540.596,538.846,0.0
52473.0,STARLINK-3879,PAYLOAD,2023-02-14 17:15:49,15.08847184,0.0001285,53.2163,42.3813,98.2384,261.8754,0.00023692,3.485e-05,0.0,0 STARLINK-3879,1 52473U 22049Y   23045.71931774  .00003485  00000-0  23692-3 0  9996,2 52473  53.2163  42.3813 0001285  98.2384 261.8754 15.08847184 43325,6917.858,95.437,540.612,538.834,0.0
52473.0,STARLINK-3879,PAYLOAD,2023-02-15 05:58:54,15.08845902,0.000144,53.2155,40.0008,109.3056,250.8092,0.00018507,2.659e-05,0.0,0 STARLINK-3879,1 52473U 22049Y   23046.24923797  .00002659  00000-0  18507-3 0  9992,2 52473  53.2155  40.0008 0001440 109.3056 250.8092 15.08845902 43565,6917.862,95.437,540.724,538.731,0.0
52473.0,STARLINK-3879,PAYLOAD,2023-02-16 09:00:26,15.08868771,0.0001334,53.2161,34.9459,97.1094,263.005,0.00055933,8.632e-05,0.0,0 STARLINK-3879,1 52473U 22049Y   23047.37530659  .00008632  00000-0  55933-3 0  9999,2 52473  53.2161  34.9459 0001334  97.1094 263.0050 15.08868771 43730,6917.792,95.436,540.58,538.735,0.0
52473.0,STARLINK-3879,PAYLOAD,2023-02-16 23:18:55,15.08827741,0.00016,53.2154,32.2688,115.9963,244.1194,-0.00022919,-3.933e-05,0.0,0 STARLINK-3879,1 52473U 22049Y   23047.97148122 -.00003933  00000-0 -22919-3 0  9994,2 52473  53.2154  32.2688 0001600 115.9963 244.1194 15.08827741 43828,6917.918,95.438,540.89,538.676,0.0
52473.0,STARLINK-3879,PAYLOAD,2023-02-17 10:26:38,15.0883531,9.23e-05,53.2162,30.1876,106.9426,253.1667,0.00011082,1.476e-05,0.0,0 STARLINK-3879,1 52473U 22049Y   23048.43516242  .00001476  00000-0  11082-3 0  9995,2 52473  53.2162  30.1876 0000923 106.9426 253.1667 15.08835310 43730,6917.895,95.438,540.398,539.121,0.0
52473.0,STARLINK-3879,PAYLOAD,2023-02-17 15:12:48,15.08817382,0.0002491,53.2158,29.2936,74.6197,285.507,-1.0794e-05,-4.6e-06,0.0,0 STARLINK-3879,1 52473U 22049Y   23048.63389547 -.00000460  00000-0 -10794-4 0  9997,2 52473  53.2158  29.2936 0002491  74.6197 285.5070 15.08817382 43768,6917.95,95.439,541.538,538.091,0.0
52473.0,STARLINK-3879,PAYLOAD,2023-02-18 05:31:16,15.08822595,8.55e-05,53.2166,26.6212,79.9959,280.1129,0.00048783,7.481e-05,0.0,0 STARLINK-3879,1 52473U 22049Y   23049.23005610  .00007481  00000-0  48783-3 0  9996,2 52473  53.2166  26.6212 0000855  79.9959 280.1129 15.08822595 44018,6917.934,95.439,540.39,539.207,0.0
52473.0,STARLINK-3879,PAYLOAD,2023-02-18 10:17:26,15.08838938,8.19e-05,53.2164,25.7281,82.9277,277.1809,0.00083019,0.00012949,0.0,0 STARLINK-3879,1 52473U 22049Y   23049.42877597  .00012949  00000-0  83019-3 0  9994,2 52473  53.2164  25.7281 0000819  82.9277 277.1809 15.08838938 43882,6917.884,95.438,540.315,539.182,0.0
